ROBUSTA-3A (MEDITERRAN*)
1 60243U 24128J   26068.73078396  .00011442  00000+0  68951-3 0  9990
2 60243  61.9866 199.5396 0051919 108.1058 252.5701 15.10076246 91399
STARLINK-36197          
1 67205U 25304P   26068.72507699  .00008721  00000+0  73768-3 0  9992
2 67205  70.0023 174.2194 0003728 271.5540  88.5192 14.98335798 13864
